%YAML 1.1
%TAG !u! tag:unity3d.com,2011:
--- !u!1 &596590026381189942
GameObject:
  m_ObjectHideFlags: 0
  m_CorrespondingSourceObject: {fileID: 0}
  m_PrefabInstance: {fileID: 0}
  m_PrefabAsset: {fileID: 0}
  serializedVersion: 6
  m_Component:
  - component: {fileID: 596590026381189936}
  - component: {fileID: 596590026381189943}
  m_Layer: 0
  m_Name: TestOrbit
  m_TagString: Untagged
  m_Icon: {fileID: 0}
  m_NavMeshLayer: 0
  m_StaticEditorFlags: 0
  m_IsActive: 1
--- !u!4 &596590026381189936
Transform:
  m_ObjectHideFlags: 0
  m_CorrespondingSourceObject: {fileID: 0}
  m_PrefabInstance: {fileID: 0}
  m_PrefabAsset: {fileID: 0}
  m_GameObject: {fileID: 596590026381189942}
  m_LocalRotation: {x: 0, y: 0, z: 0, w: 1}
  m_LocalPosition: {x: 0, y: 0, z: 0}
  m_LocalScale: {x: 1, y: 1, z: 1}
  m_ConstrainProportionsScale: 0
  m_Children:
  - {fileID: 1444190712424731412}
  - {fileID: 1415685609634297682}
  m_Father: {fileID: 0}
  m_RootOrder: 0
  m_LocalEulerAnglesHint: {x: 0, y: 0, z: 0}
--- !u!114 &596590026381189943
MonoBehaviour:
  m_ObjectHideFlags: 0
  m_CorrespondingSourceObject: {fileID: 0}
  m_PrefabInstance: {fileID: 0}
  m_PrefabAsset: {fileID: 0}
  m_GameObject: {fileID: 596590026381189942}
  m_Enabled: 1
  m_EditorHideFlags: 0
  m_Script: {fileID: 11500000, guid: 7163c704b9b5ddb4598fb39737923137, type: 3}
  m_Name: 
  m_EditorClassIdentifier: 
  tree:
    serializedValue: '{"Root":{"$type":"Orbital.Core.TrajectorySystem.SingleCenterBranch,
      Core","settings":{"mass":0.0,"pericenterSpeed":0.0,"pericenterRadius":0.0,"latitudeShift":0.0,"longitudeShift":0.0,"inclination":0.0,"timeShift":0.0,"period":0.0},"Central":{"$type":"Orbital.Core.TrajectorySystem.CelestialBody,
      Core","settings":{"mass":6E+24,"pericenterSpeed":0.0,"pericenterRadius":0.0,"latitudeShift":0.0,"longitudeShift":0.0,"inclination":0.0,"timeShift":0.0,"period":0.0}},"Children":[{"$type":"Orbital.Core.TrajectorySystem.CelestialBody,
      Core","settings":{"mass":1E+22,"pericenterSpeed":1071.03,"pericenterRadius":3E+08,"latitudeShift":3.88,"longitudeShift":0.0,"inclination":0.0,"timeShift":0.0,"period":0.0}},{"$type":"Orbital.Core.TrajectorySystem.CelestialBody,
      Core","settings":{"mass":1E+22,"pericenterSpeed":1200.0,"pericenterRadius":2.8E+08,"latitudeShift":0.0,"longitudeShift":-126.5,"inclination":0.0,"timeShift":0.0,"period":0.0}}]}}'
--- !u!1 &949194484788710395
GameObject:
  m_ObjectHideFlags: 0
  m_CorrespondingSourceObject: {fileID: 0}
  m_PrefabInstance: {fileID: 0}
  m_PrefabAsset: {fileID: 0}
  serializedVersion: 6
  m_Component:
  - component: {fileID: 1177257839945808196}
  - component: {fileID: 6653972294982843103}
  m_Layer: 0
  m_Name: Child[0]
  m_TagString: Untagged
  m_Icon: {fileID: 0}
  m_NavMeshLayer: 0
  m_StaticEditorFlags: 0
  m_IsActive: 1
--- !u!4 &1177257839945808196
Transform:
  m_ObjectHideFlags: 0
  m_CorrespondingSourceObject: {fileID: 0}
  m_PrefabInstance: {fileID: 0}
  m_PrefabAsset: {fileID: 0}
  m_GameObject: {fileID: 949194484788710395}
  m_LocalRotation: {x: -0, y: -0, z: -0, w: 1}
  m_LocalPosition: {x: 0, y: 0, z: 0}
  m_LocalScale: {x: 1, y: 1, z: 1}
  m_ConstrainProportionsScale: 0
  m_Children: []
  m_Father: {fileID: 1415685609634297682}
  m_RootOrder: 0
  m_LocalEulerAnglesHint: {x: 0, y: 0, z: 0}
--- !u!114 &6653972294982843103
MonoBehaviour:
  m_ObjectHideFlags: 0
  m_CorrespondingSourceObject: {fileID: 0}
  m_PrefabInstance: {fileID: 0}
  m_PrefabAsset: {fileID: 0}
  m_GameObject: {fileID: 949194484788710395}
  m_Enabled: 1
  m_EditorHideFlags: 0
  m_Script: {fileID: 11500000, guid: 843ed5443cb417d41a77a9c28a6b6ba3, type: 3}
  m_Name: 
  m_EditorClassIdentifier: 
--- !u!1 &1444190712424731409
GameObject:
  m_ObjectHideFlags: 0
  m_CorrespondingSourceObject: {fileID: 0}
  m_PrefabInstance: {fileID: 0}
  m_PrefabAsset: {fileID: 0}
  serializedVersion: 6
  m_Component:
  - component: {fileID: 1444190712424731412}
  - component: {fileID: 1444190712424731415}
  - component: {fileID: 1444190712424731414}
  - component: {fileID: 7574788787978624942}
  m_Layer: 0
  m_Name: Test
  m_TagString: Untagged
  m_Icon: {fileID: 0}
  m_NavMeshLayer: 0
  m_StaticEditorFlags: 0
  m_IsActive: 1
--- !u!4 &1444190712424731412
Transform:
  m_ObjectHideFlags: 0
  m_CorrespondingSourceObject: {fileID: 0}
  m_PrefabInstance: {fileID: 0}
  m_PrefabAsset: {fileID: 0}
  m_GameObject: {fileID: 1444190712424731409}
  m_LocalRotation: {x: -0, y: -0, z: -0, w: 1}
  m_LocalPosition: {x: 0, y: 0, z: 0}
  m_LocalScale: {x: 1, y: 1, z: 1}
  m_ConstrainProportionsScale: 0
  m_Children: []
  m_Father: {fileID: 596590026381189936}
  m_RootOrder: 0
  m_LocalEulerAnglesHint: {x: 0, y: 0, z: 0}
--- !u!114 &1444190712424731415
MonoBehaviour:
  m_ObjectHideFlags: 0
  m_CorrespondingSourceObject: {fileID: 0}
  m_PrefabInstance: {fileID: 0}
  m_PrefabAsset: {fileID: 0}
  m_GameObject: {fileID: 1444190712424731409}
  m_Enabled: 1
  m_EditorHideFlags: 0
  m_Script: {fileID: 11500000, guid: ca4e6cd601a4f7342b3e03c9387a978b, type: 3}
  m_Name: 
  m_EditorClassIdentifier: 
  body: {fileID: 6786248946799472661}
  inclination: 0
  eccentricity: 0.5
  sma: 6878000
  largeAscendingNode: 0
  argumentPericenter: 0
  meanAnomalyAtEpoch: 0
  t: 1
  velocity: {x: 7600, y: 0, z: 0}
  position: {x: 0, y: 0, z: 6878000}
--- !u!114 &1444190712424731414
MonoBehaviour:
  m_ObjectHideFlags: 0
  m_CorrespondingSourceObject: {fileID: 0}
  m_PrefabInstance: {fileID: 0}
  m_PrefabAsset: {fileID: 0}
  m_GameObject: {fileID: 1444190712424731409}
  m_Enabled: 1
  m_EditorHideFlags: 0
  m_Script: {fileID: 11500000, guid: 4fdea83da55a455a88c8abf244c62164, type: 3}
  m_Name: 
  m_EditorClassIdentifier: 
  scaleFactor: 6800000
  originTarget: {fileID: 0}
--- !u!114 &7574788787978624942
MonoBehaviour:
  m_ObjectHideFlags: 0
  m_CorrespondingSourceObject: {fileID: 0}
  m_PrefabInstance: {fileID: 0}
  m_PrefabAsset: {fileID: 0}
  m_GameObject: {fileID: 1444190712424731409}
  m_Enabled: 1
  m_EditorHideFlags: 0
  m_Script: {fileID: 11500000, guid: 3eda8188743a496684e72fc3525ebeb5, type: 3}
  m_Name: 
  m_EditorClassIdentifier: 
  inverseRotAngle: 0
--- !u!1 &6786248946799472661
GameObject:
  m_ObjectHideFlags: 0
  m_CorrespondingSourceObject: {fileID: 0}
  m_PrefabInstance: {fileID: 0}
  m_PrefabAsset: {fileID: 0}
  serializedVersion: 6
  m_Component:
  - component: {fileID: 1731622002815039078}
  - component: {fileID: 7417434966920940271}
  - component: {fileID: 2570048391928408271}
  m_Layer: 0
  m_Name: Child[2]
  m_TagString: Untagged
  m_Icon: {fileID: 0}
  m_NavMeshLayer: 0
  m_StaticEditorFlags: 0
  m_IsActive: 1
--- !u!4 &1731622002815039078
Transform:
  m_ObjectHideFlags: 0
  m_CorrespondingSourceObject: {fileID: 0}
  m_PrefabInstance: {fileID: 0}
  m_PrefabAsset: {fileID: 0}
  m_GameObject: {fileID: 6786248946799472661}
  m_LocalRotation: {x: -0, y: -0, z: -0, w: 1}
  m_LocalPosition: {x: 0, y: 0, z: 0}
  m_LocalScale: {x: 1, y: 1, z: 1}
  m_ConstrainProportionsScale: 0
  m_Children: []
  m_Father: {fileID: 1415685609634297682}
  m_RootOrder: 2
  m_LocalEulerAnglesHint: {x: 0, y: 0, z: 0}
--- !u!114 &7417434966920940271
MonoBehaviour:
  m_ObjectHideFlags: 0
  m_CorrespondingSourceObject: {fileID: 0}
  m_PrefabInstance: {fileID: 0}
  m_PrefabAsset: {fileID: 0}
  m_GameObject: {fileID: 6786248946799472661}
  m_Enabled: 1
  m_EditorHideFlags: 0
  m_Script: {fileID: 11500000, guid: 843ed5443cb417d41a77a9c28a6b6ba3, type: 3}
  m_Name: 
  m_EditorClassIdentifier: 
--- !u!114 &2570048391928408271
MonoBehaviour:
  m_ObjectHideFlags: 0
  m_CorrespondingSourceObject: {fileID: 0}
  m_PrefabInstance: {fileID: 0}
  m_PrefabAsset: {fileID: 0}
  m_GameObject: {fileID: 6786248946799472661}
  m_Enabled: 1
  m_EditorHideFlags: 0
  m_Script: {fileID: 11500000, guid: e89756fa137ca6142960df48232334ec, type: 3}
  m_Name: 
  m_EditorClassIdentifier: 
  material: {fileID: 2100000, guid: 87188d7fee3303c4bbdbbc2515b7f025, type: 2}
  mesh: {fileID: 4300000, guid: edc124365cfe5d34e8acd39cbde3964d, type: 2}
--- !u!1 &6869555834215298745
GameObject:
  m_ObjectHideFlags: 0
  m_CorrespondingSourceObject: {fileID: 0}
  m_PrefabInstance: {fileID: 0}
  m_PrefabAsset: {fileID: 0}
  serializedVersion: 6
  m_Component:
  - component: {fileID: 3018979015593223685}
  - component: {fileID: 4379479794257545861}
  - component: {fileID: 8080866782236304376}
  m_Layer: 0
  m_Name: Child[1]
  m_TagString: Untagged
  m_Icon: {fileID: 0}
  m_NavMeshLayer: 0
  m_StaticEditorFlags: 0
  m_IsActive: 1
--- !u!4 &3018979015593223685
Transform:
  m_ObjectHideFlags: 0
  m_CorrespondingSourceObject: {fileID: 0}
  m_PrefabInstance: {fileID: 0}
  m_PrefabAsset: {fileID: 0}
  m_GameObject: {fileID: 6869555834215298745}
  m_LocalRotation: {x: -0, y: -0, z: -0, w: 1}
  m_LocalPosition: {x: 0, y: 0, z: 0}
  m_LocalScale: {x: 1, y: 1, z: 1}
  m_ConstrainProportionsScale: 0
  m_Children: []
  m_Father: {fileID: 1415685609634297682}
  m_RootOrder: 1
  m_LocalEulerAnglesHint: {x: 0, y: 0, z: 0}
--- !u!114 &4379479794257545861
MonoBehaviour:
  m_ObjectHideFlags: 0
  m_CorrespondingSourceObject: {fileID: 0}
  m_PrefabInstance: {fileID: 0}
  m_PrefabAsset: {fileID: 0}
  m_GameObject: {fileID: 6869555834215298745}
  m_Enabled: 1
  m_EditorHideFlags: 0
  m_Script: {fileID: 11500000, guid: 843ed5443cb417d41a77a9c28a6b6ba3, type: 3}
  m_Name: 
  m_EditorClassIdentifier: 
--- !u!114 &8080866782236304376
MonoBehaviour:
  m_ObjectHideFlags: 0
  m_CorrespondingSourceObject: {fileID: 0}
  m_PrefabInstance: {fileID: 0}
  m_PrefabAsset: {fileID: 0}
  m_GameObject: {fileID: 6869555834215298745}
  m_Enabled: 1
  m_EditorHideFlags: 0
  m_Script: {fileID: 11500000, guid: e89756fa137ca6142960df48232334ec, type: 3}
  m_Name: 
  m_EditorClassIdentifier: 
  material: {fileID: 2100000, guid: 87188d7fee3303c4bbdbbc2515b7f025, type: 2}
  mesh: {fileID: 4300000, guid: edc124365cfe5d34e8acd39cbde3964d, type: 2}
--- !u!1 &8212577127405217046
GameObject:
  m_ObjectHideFlags: 0
  m_CorrespondingSourceObject: {fileID: 0}
  m_PrefabInstance: {fileID: 0}
  m_PrefabAsset: {fileID: 0}
  serializedVersion: 6
  m_Component:
  - component: {fileID: 1415685609634297682}
  - component: {fileID: 3060668902643922971}
  m_Layer: 0
  m_Name: RootMass
  m_TagString: Untagged
  m_Icon: {fileID: 0}
  m_NavMeshLayer: 0
  m_StaticEditorFlags: 0
  m_IsActive: 1
--- !u!4 &1415685609634297682
Transform:
  m_ObjectHideFlags: 0
  m_CorrespondingSourceObject: {fileID: 0}
  m_PrefabInstance: {fileID: 0}
  m_PrefabAsset: {fileID: 0}
  m_GameObject: {fileID: 8212577127405217046}
  m_LocalRotation: {x: -0, y: -0, z: -0, w: 1}
  m_LocalPosition: {x: 0, y: 0, z: 0}
  m_LocalScale: {x: 1, y: 1, z: 1}
  m_ConstrainProportionsScale: 0
  m_Children:
  - {fileID: 1177257839945808196}
  - {fileID: 3018979015593223685}
  - {fileID: 1731622002815039078}
  m_Father: {fileID: 596590026381189936}
  m_RootOrder: 1
  m_LocalEulerAnglesHint: {x: 0, y: 0, z: 0}
--- !u!114 &3060668902643922971
MonoBehaviour:
  m_ObjectHideFlags: 0
  m_CorrespondingSourceObject: {fileID: 0}
  m_PrefabInstance: {fileID: 0}
  m_PrefabAsset: {fileID: 0}
  m_GameObject: {fileID: 8212577127405217046}
  m_Enabled: 1
  m_EditorHideFlags: 0
  m_Script: {fileID: 11500000, guid: 843ed5443cb417d41a77a9c28a6b6ba3, type: 3}
  m_Name: 
  m_EditorClassIdentifier: 
